#dP2018  2 19  0  0  0.00000000      96 __u+U ITR00 FIT  IAC
## 1989  86400.00000000   900.00000000 58168 0.0000000000000
+   87   C01C02C03C04C05C06C07C08C09C10C11C12C13C14E01E02E03
+        E04E05E07E08E09E11E12E14E18E19E24E26E30G01G02G03G05
+        G06G07G08G09G10G11G12G13G14G15G16G17G19G20G21G22G23
+        G24G25G26G27G28G29G30G31G32J01J02J03R01R02R03R04R05
+        R06R07R08R09R10R11R13R14R15R16R17R18R19R20R21R22R23
+        R24R26  0  0  0  0  0  0  0  0  0  0  0  0  0  0  0
++        12 12 12 12 12  9  9  9  8  9  8  8  8  8  6  6  7
++         6  6  7  7  6  6  6  7  6  6  6  7  7  3  3  3  4
++         3  3  3  4  3  3  3  3  3  3  3  3  4  3  3  3  4
++         3  3  3  3  3  3  3  3  3 11 11 12  5  5  5  6  6
++         5  5  5  5  6  5  6  5  5  5  5  5  5  5  5  7  5
++         6  9  0  0  0  0  0  0  0  0  0  0  0  0  0  0  0
%c M  cc GPS ccc cccc cccc cccc cccc ccccc ccccc ccccc ccccc
%c cc cc ccc ccc cccc cccc cccc cccc ccccc ccccc ccccc ccccc
%f  0.0000000  0.000000000  0.00000000000  0.000000000000000
%f  0.0000000  0.000000000  0.00000000000  0.000000000000000
%i    0    0    0    0      0      0      0      0         0
%i    0    0    0    0      0      0      0      0         0
/* INFORMATION & ANALYSIS CENTER (IAC) OF MCC   (RAPID DATA)
/* S/V CLOCKS ARE ALIGNED TO GPS & GLONASS TIME RESPECTIVELY
/* USING THE BROADCAST EPHEMERIS                            
/* PCV:IGS14_1984 OL/AL:FES2004  NONE     YN ORB:CoN CLK:CoN
*  2018 02 19  3  0  0.00000000
PC01 -32288.644645  27112.680731   -747.995579    385.087836
PC02   4428.231509  41919.440496   -333.425090   -236.653361
PC03 -14766.824129  39455.799070  -1141.409936    -62.850683
PC04 -39637.159511  14338.614343   -399.329623   -105.682120
PC05  21915.986246  36006.035629   -308.630649   -156.766785
PC06 -19245.368664  22663.029061  30013.920991   -680.851528
PC07 -19317.018288  37650.775920   2627.671101   -316.709204
PC08  -5032.523343  27619.118986 -31290.292644    183.893572
PC09  -3611.300071  24489.153386  34259.101591   -389.898531
PC10  -9328.897737  39995.108292 -10191.742486    -26.720154
PC11  19443.058346  -3372.094947  19762.802828   -397.209270
PC12  24874.013751  11816.477889   4267.589379    382.693321
PC13   6693.281623  35604.067701 -21371.438776   -212.280238
PC14  25159.507426 -11887.147325   2555.766998    222.509147
PE01  12123.362247 -26900.174935  -2391.501720   -280.017145
PE02 -12105.399321  26899.896489   2367.527519      5.142634
PE03 -14605.417270  16428.508883  19825.630280     -0.776865
PE04  -7646.909103 -15927.020886 -23748.235924     21.207138
PE05 -28361.907260   7304.716348   4275.876654    319.216437
PE07  25499.632073   6077.127633  13749.123015     81.706392
PE08   7747.976892  15719.818535  23854.180331   6639.103782
PE09 -25520.559240  -5771.452692 -13846.566271   6870.869807
PE11 -22383.257723 -16214.767062 -10562.331241   1848.271975
PE12 -13156.355336 -25142.823683   8397.904904   3539.073762
PE14 -24048.577315   5405.020706 -16278.154951   6628.687986
PE18  26621.275399   6732.222569   4139.846273   6416.906408
PE19  16449.818359 -15888.322638 -18798.021834     19.554857
PE24 -14055.656681  -8319.537962  24676.194108   6854.759857
PE26  18568.647411  -1873.686176  22984.264841   6254.100248
PE30   1382.382357  24914.366932 -15921.303643   6065.576143
PG01  14483.872474  -3708.179916  21812.442566    -29.620007
PG02 -14038.598202 -19451.692096 -11137.607069    196.296515
PG03  21943.060908 -10566.092642  10515.720603     12.259368
PG05 -14312.095522  -7347.102173 -21260.829650    -13.971086
PG06  -6872.517540 -25622.341096  -1036.698592    414.289152
PG07   7390.101745 -19365.039120 -16143.933852    234.668897
PG08  25936.847403   4429.586481   4197.046787    -91.686928
PG09  13628.539182 -10922.683154 -20050.279186    501.971918
PG10  -5786.849477  20582.145488  15694.769460    161.605472
PG11  17930.449383  -1056.283519  18973.372437   -736.476102
PG12 -22058.136071   7999.698159  12068.448954    349.545755
PG13 -23167.360538 -12567.433750  -3358.443072    -95.606256
PG14  12922.711946  17055.364208  16124.980886    -94.145117
PG15 -26280.982935  -2326.569810   4306.023138   -356.932069
PG16  13556.454720   7520.313867 -21769.114033     31.958226
PG17  -3940.783073 -16290.775072  21022.617155   -122.073446
PG19 -11417.940300 -16794.517827  16727.731515   -456.121056
PG20 -21131.084733  10892.001685 -11942.086317    501.251015
PG21  -3997.088705  21947.351534 -13594.674778   -428.759057
PG22  20874.118137  -4386.334322  16076.627473   -296.458592
PG23  23539.924255  -2467.693473 -12196.939261   -218.908952
PG24 -15879.321137    416.843539  21200.369545    -46.229907
PG25 -19443.492241  17893.506443    335.446831   -541.030022
PG26   4613.518502  15906.615659 -20737.881745   -245.446825
PG27  22061.813089  12455.829604  -8450.899512    367.561955
PG28  10133.242235 -20274.267199  14507.196242    690.063668
PG29 -17426.638356   6961.535398 -18800.893763    494.224055
PG30   2280.613476 -24743.990807  -9173.569561    102.256982
PG31   6837.676103  25312.223512  -2365.597927    140.757889
PG32   4556.187226  16347.000830  20473.683497   -531.817529
PJ01 -28409.675128  31214.948228   6070.842724    -98.350485
PJ02 -26252.543721  26160.339499  24634.044443     -0.084544
PJ03 -30834.192992  17040.801236 -18515.871955      0.313783
PR01  -4797.098847  12670.424404  21613.971909     22.292194
PR02  15300.592128   4912.287455  19859.790224    295.961004
PR03  24356.245507  -5049.889557   5780.049185    124.526863
PR04  18875.128675 -12222.579305 -12045.020816    250.421754
PR05   2939.681881 -12326.156796 -22147.481733   -250.558089
PR06 -16077.667810  -4373.855264 -19317.205247    127.288962
PR07 -24364.161825   5276.486688  -5292.627595    -30.462744
PR08 -19284.390995  12078.425427  11573.402326     38.337442
PR09  -6674.181863 -14269.512755  20053.959010     47.491787
PR10 -11516.080715   4621.901593  22275.279474     18.609744
PR11 -10004.353432  20756.673179  10993.572333    -22.154927
PR13   6985.845676  13535.662799 -20481.195318     -7.626360
PR14  11697.748789  -4207.877320 -22263.985184     24.815233
PR15  10747.171638 -18395.409636 -14105.210589     -6.603584
PR16   2266.667936 -24811.756144   5723.397990     85.953058
PR17  18704.598265   7143.685252  15800.664268    110.363718
PR18   8470.663652  -6629.042613  23151.925468    185.362350
PR19  -6592.866037 -17223.606519  17627.101371    -45.030392
PR20 -18289.759136 -17728.399084    646.754037   -327.737105
PR21 -18617.339335  -7012.862327 -15969.479114     28.548481
PR22  -6768.622447   8126.766129 -23202.740971    -19.983467
PR23   9640.477107  18136.892271 -15131.170257    137.112342
PR24  18852.044692  17198.575984     48.569545   -162.640507
PR26 -18576.460165 -17473.811058    887.818046      0.693170
EOF
